NORAD_CAT_ID,OBJECT_NAME,OBJECT_TYPE,EPOCH,MEAN_MOTION,ECCENTRICITY,INCLINATION,RA_OF_ASC_NODE,ARG_OF_PERICENTER,MEAN_ANOMALY,BSTAR,MEAN_MOTION_DOT,MEAN_MOTION_DDOT,TLE_LINE0,TLE_LINE1,TLE_LINE2,SEMIMAJOR_AXIS,PERIOD,APOGEE,PERIGEE,DECAYED
55671.0,STARLINK-5460,PAYLOAD,2023-05-28 15:07:36,15.69928215,0.0002995,70.0008,229.156,271.9104,88.1749,2.5076e-05,2.804e-05,0.0,0 STARLINK-5460,1 55671U 23021AV  23148.63028771  .00002804  00000-0  25076-4 0  9992,2 55671  70.0008 229.1560 0002995 271.9104  88.1749 15.69928215 16524,6737.239,91.724,361.122,357.087,0.0
55671.0,STARLINK-5460,PAYLOAD,2023-05-28 22:46:22,15.69919024,0.0002907,70.0011,228.2607,276.0416,84.0448,1.9416e-05,2.122e-05,0.0,0 STARLINK-5460,1 55671U 23021AV  23148.94887609  .00002122  00000-0  19416-4 0  9993,2 55671  70.0011 228.2607 0002907 276.0416  84.0448 15.69919024 16265,6737.266,91.724,361.089,357.172,0.0
55671.0,STARLINK-5460,PAYLOAD,2023-05-29 14:03:54,15.699194,0.0002976,70.0003,226.4722,271.4798,88.6056,3.1254e-07,-1.75e-06,0.0,0 STARLINK-5460,1 55671U 23021AV  23149.58604812 -.00000175  00000-0  31254-6 0  9990,2 55671  70.0003 226.4722 0002976 271.4798  88.6056 15.69919400 16670,6737.265,91.724,361.135,357.125,0.0
55671.0,STARLINK-5460,PAYLOAD,2023-05-30 08:24:55,15.69928868,0.0002729,70.0003,224.3192,261.4665,98.6221,3.1891e-05,3.624e-05,0.0,0 STARLINK-5460,1 55671U 23021AV  23150.35064033  .00003624  00000-0  31891-4 0  9998,2 55671  70.0003 224.3192 0002729 261.4665  98.6221 15.69928868 16488,6737.238,91.724,360.941,357.264,0.0
55671.0,STARLINK-5460,PAYLOAD,2023-05-30 14:31:55,15.69926034,0.0003042,69.9999,223.6015,262.5073,97.5777,1.7389e-05,1.879e-05,0.0,0 STARLINK-5460,1 55671U 23021AV  23150.60550860  .00001879  00000-0  17389-4 0  9990,2 55671  69.9999 223.6015 0003042 262.5073  97.5777 15.69926034 16835,6737.246,91.724,361.16,357.061,0.0
55671.0,STARLINK-5460,PAYLOAD,2023-05-31 13:28:12,15.69931595,0.0003645,69.9998,220.9155,263.2847,96.7934,3.1258e-05,3.549e-05,0.0,0 STARLINK-5460,1 55671U 23021AV  23151.56125704  .00003549  00000-0  31258-4 0  9998,2 55671  69.9998 220.9155 0003645 263.2847  96.7934 15.69931595 16985,6737.23,91.724,361.55,356.639,0.0
55671.0,STARLINK-5460,PAYLOAD,2023-06-01 07:49:14,15.69923304,0.0003407,69.9991,218.7655,260.9857,99.0953,1.104e-05,1.115e-05,0.0,0 STARLINK-5460,1 55671U 23021AV  23152.32586108  .00001115  00000-0  11040-4 0  9996,2 55671  69.9991 218.7655 0003407 260.9857  99.0953 15.69923304 17100,6737.253,91.724,361.414,356.823,0.0
55671.0,STARLINK-5460,PAYLOAD,2023-06-01 21:35:00,15.6992493,0.000348,69.9992,217.1551,268.0985,91.9812,1.4511e-05,1.532e-05,0.0,0 STARLINK-5460,1 55671U 23021AV  23152.89931114  .00001532  00000-0  14511-4 0  9998,2 55671  69.9992 217.1551 0003480 268.0985  91.9812 15.69924930 16886,6737.249,91.724,361.458,356.769,0.0
55671.0,STARLINK-5460,PAYLOAD,2023-06-02 12:52:31,15.69927546,0.0003567,69.9969,215.3629,266.5661,93.5127,1.1462e-05,1.166e-05,0.0,0 STARLINK-5460,1 55671U 23021AV  23153.53647699  .00001166  00000-0  11462-4 0  9997,2 55671  69.9969 215.3629 0003567 266.5661  93.5127 15.69927546 17295,6737.241,91.724,361.509,356.703,0.0
55671.0,STARLINK-5460,PAYLOAD,2023-06-02 14:24:16,15.69926348,0.0003425,69.997,215.1836,265.3644,94.7161,1.1482e-05,1.168e-05,0.0,0 STARLINK-5460,1 55671U 23021AV  23153.60019426  .00001168  00000-0  11482-4 0  9990,2 55671  69.9970 215.1836 0003425 265.3644  94.7161 15.69926348 17308,6737.245,91.724,361.417,356.802,0.0
55671.0,STARLINK-5460,PAYLOAD,2023-06-03 07:13:33,15.69916161,0.0003565,69.9969,213.2137,266.8832,93.1955,5.7474e-06,4.78e-06,0.0,0 STARLINK-5460,1 55671U 23021AV  23154.30108612  .00000478  00000-0  57474-5 0  9999,2 55671  69.9969 213.2137 0003565 266.8832  93.1955 15.69916161 17103,6737.274,91.725,361.541,356.737,0.0
55671.0,STARLINK-5460,PAYLOAD,2023-06-03 13:20:34,15.69929291,0.0003725,69.9966,212.4968,268.3909,91.686,-2.4744e-05,-3.188e-05,0.0,0 STARLINK-5460,1 55671U 23021AV  23154.55595062 -.00003188  00000-0 -24744-4 0  9991,2 55671  69.9966 212.4968 0003725 268.3909  91.6860 15.69929291 17457,6737.236,91.724,361.611,356.592,0.0
55671.0,STARLINK-5460,PAYLOAD,2023-06-03 20:59:18,15.69933072,0.0004242,69.9985,211.6028,262.6928,97.3786,1.9986e-05,2.192e-05,0.0,0 STARLINK-5460,1 55671U 23021AV  23154.87452152  .00002192  00000-0  19986-4 0  9992,2 55671  69.9985 211.6028 0004242 262.6928  97.3786 15.69933072 17507,6737.225,91.724,361.948,356.233,0.0
55671.0,STARLINK-5460,PAYLOAD,2023-06-04 13:48:35,15.69930029,0.0003438,69.9968,209.6281,263.419,96.6614,1.3514e-05,1.413e-05,0.0,0 STARLINK-5460,1 55671U 23021AV  23155.57540935  .00001413  00000-0  13514-4 0  9993,2 55671  69.9968 209.6281 0003438 263.4190  96.6614 15.69930029 17615,6737.234,91.724,361.415,356.783,0.0
55671.0,STARLINK-5460,PAYLOAD,2023-06-05 05:06:07,15.6991784,0.0003325,69.9975,207.8405,254.7245,105.3583,1.3859e-05,1.454e-05,0.0,0 STARLINK-5460,1 55671U 23021AV  23156.21258332  .00001454  00000-0  13859-4 0  9999,2 55671  69.9975 207.8405 0003325 254.7245 105.3583 15.69917840 17406,6737.269,91.725,361.374,356.894,0.0
55671.0,STARLINK-5460,PAYLOAD,2023-06-05 12:44:52,15.69918273,0.0003377,69.9972,206.9437,257.759,102.3227,1.239e-05,1.277e-05,0.0,0 STARLINK-5460,1 55671U 23021AV  23156.53116780  .00001277  00000-0  12390-4 0  9996,2 55671  69.9972 206.9437 0003377 257.7590 102.3227 15.69918273 17763,6737.268,91.725,361.408,356.858,0.0
55671.0,STARLINK-5460,PAYLOAD,2023-06-06 05:34:09,15.69920632,0.0003634,69.9969,204.9733,260.4038,99.6747,4.0671e-06,2.76e-06,0.0,0 STARLINK-5460,1 55671U 23021AV  23157.23205116  .00000276  00000-0  40671-5 0  9998,2 55671  69.9969 204.9733 0003634 260.4038  99.6747 15.69920632 17565,6737.261,91.724,361.574,356.678,0.0
55671.0,STARLINK-5460,PAYLOAD,2023-06-06 11:41:09,15.69926866,0.0003332,69.9974,204.2568,258.5698,101.5124,1.2314e-05,1.268e-05,0.0,0 STARLINK-5460,1 55671U 23021AV  23157.48691275  .00001268  00000-0  12314-4 0  9994,2 55671  69.9974 204.2568 0003332 258.5698 101.5124 15.69926866 17911,6737.243,91.724,361.353,356.863,0.0
55671.0,STARLINK-5460,PAYLOAD,2023-06-06 13:12:54,15.69928569,0.0003376,69.9974,204.0776,260.4923,99.5891,5.252e-06,4.19e-06,0.0,0 STARLINK-5460,1 55671U 23021AV  23157.55062979  .00000419  00000-0  52520-5 0  9996,2 55671  69.9974 204.0776 0003376 260.4923  99.5891 15.69928569 17617,6737.238,91.724,361.378,356.829,0.0
55671.0,STARLINK-5460,PAYLOAD,2023-06-06 23:55:10,15.69922077,0.0003411,69.9979,202.8233,260.9135,99.1674,6.4728e-06,5.65e-06,0.0,0 STARLINK-5460,1 55671U 23021AV  23157.99664994  .00000565  00000-0  64728-5 0  9994,2 55671  69.9979 202.8233 0003411 260.9135  99.1674 15.69922077 17686,6737.257,91.724,361.42,356.824,0.0
55671.0,STARLINK-5460,PAYLOAD,2023-06-07 06:02:11,15.69920908,0.0003401,69.9972,202.1063,261.0298,99.0513,5.5631e-06,4.56e-06,0.0,0 STARLINK-5460,1 55671U 23021AV  23158.25151775  .00000456  00000-0  55631-5 0  9994,2 55671  69.9972 202.1063 0003401 261.0298  99.0513 15.69920908 18036,6737.26,91.724,361.417,356.834,0.0
55671.0,STARLINK-5460,PAYLOAD,2023-06-08 06:30:13,15.69910194,0.0003332,69.9972,199.2402,261.9254,98.1564,2.5603e-05,2.865e-05,0.0,0 STARLINK-5460,1 55671U 23021AV  23159.27098984  .00002865  00000-0  25603-4 0  9990,2 55671  69.9972 199.2402 0003332 261.9254  98.1564 15.69910194 17887,6737.291,91.725,361.401,356.911,0.0
55671.0,STARLINK-5460,PAYLOAD,2023-06-08 12:37:13,15.69930638,0.0003387,69.997,198.5236,263.7536,96.3274,5.4585e-06,4.44e-06,0.0,0 STARLINK-5460,1 55671U 23021AV  23159.52584712  .00000444  00000-0  54585-5 0  9990,2 55671  69.9970 198.5236 0003387 263.7536  96.3274 15.69930638 18238,6737.232,91.724,361.379,356.816,0.0
55671.0,STARLINK-5460,PAYLOAD,2023-06-09 02:23:02,15.69890571,0.0003802,69.9974,196.9122,263.5218,96.5544,-2.909e-05,-3.705e-05,0.0,0 STARLINK-5460,1 55671U 23021AV  23160.09932930 -.00003705  00000-0 -29090-4 0  9990,2 55671  69.9974 196.9122 0003802 263.5218  96.5544 15.69890571 18014,6737.347,91.726,361.774,356.651,0.0
55671.0,STARLINK-5460,PAYLOAD,2023-06-09 08:30:01,15.69903227,0.0003475,69.9969,196.1949,261.0031,99.0771,-1.3953e-05,-1.889e-05,0.0,0 STARLINK-5460,1 55671U 23021AV  23160.35418915 -.00001889  00000-0 -13953-4 0  9993,2 55671  69.9969 196.1949 0003475 261.0031  99.0771 15.69903227 18056,6737.311,91.725,361.517,356.835,0.0
55671.0,STARLINK-5460,PAYLOAD,2023-06-09 13:05:16,15.69917937,0.0003517,69.9973,195.6584,262.8578,97.2218,5.1355e-06,4.05e-06,0.0,0 STARLINK-5460,1 55671U 23021AV  23160.54532754  .00000405  00000-0  51355-5 0  9992,2 55671  69.9973 195.6584 0003517 262.8578  97.2218 15.69917937 18398,6737.269,91.725,361.503,356.764,0.0
55671.0,STARLINK-5460,PAYLOAD,2023-06-10 08:58:01,15.69937458,0.0004037,69.9966,193.3301,269.8295,90.2438,1.5677e-05,1.673e-05,0.0,0 STARLINK-5460,1 55671U 23021AV  23161.37362843  .00001673  00000-0  15677-4 0  9998,2 55671  69.9966 193.3301 0004037 269.8295  90.2438 15.69937458 18211,6737.213,91.723,361.798,356.358,0.0
55671.0,STARLINK-5460,PAYLOAD,2023-06-10 12:01:31,15.69936433,0.0003697,69.9976,192.9722,264.3189,95.7585,1.3159e-05,1.37e-05,0.0,0 STARLINK-5460,1 55671U 23021AV  23161.50106242  .00001370  00000-0  13159-4 0  9999,2 55671  69.9976 192.9722 0003697 264.3189  95.7585 15.69936433 18548,6737.216,91.723,361.572,356.59,0.0
55671.0,STARLINK-5460,PAYLOAD,2023-06-10 19:40:18,15.6991941,0.0003864,69.9961,192.0745,263.879,96.1965,-2.6345e-06,-5.3e-06,0.0,0 STARLINK-5460,1 55671U 23021AV  23161.81965880 -.00000530  00000-0 -26345-5 0  9995,2 55671  69.9961 192.0745 0003864 263.8790  96.1965 15.69919410 18594,6737.265,91.724,361.733,356.526,0.0
55671.0,STARLINK-5460,PAYLOAD,2023-06-11 01:47:19,15.69911358,0.0003689,69.9978,191.3595,268.0132,92.0641,1.9186e-05,2.094e-05,0.0,0 STARLINK-5460,1 55671U 23021AV  23162.07452683  .00002094  00000-0  19186-4 0  9995,2 55671  69.9978 191.3595 0003689 268.0132  92.0641 15.69911358 18329,6737.288,91.725,361.638,356.667,0.0
